{
  "type": "FeatureCollection",
  "features": [
    {
      "type": "Feature",
      "properties": {
        "norad_id": 46805,
        "name": "COSMOS 2547 (705K)",
        "group": "glo-ops",
        "lat": 24.482817172538745,
        "lon": 6.167259851196337,
        "alt_km": 19123.691585827375,
        "timestamp": "2025-12-13T18:50:04.691707+00:00",
        "meta_object_name": "COSMOS 2547 (705K)",
        "meta_object_id": "2020-075A",
        "meta_epoch": "2025-12-08T21:25:56.196192",
        "meta_mean_motion": 2.13099854,
        "meta_eccentricity": 0.00063847,
        "meta_inclination": 64.5958,
        "meta_ra_of_asc_node": 198.8249,
        "meta_arg_of_pericenter": 229.7163,
        "meta_mean_anomaly": 130.3027,
        "meta_ephemeris_type": 0,
        "meta_classification_type": "U",
        "meta_norad_cat_id": 46805,
        "meta_element_set_no": 999,
        "meta_rev_at_epoch": 3985,
        "meta_bstar": 0,
        "meta_mean_motion_dot": 4.5e-07,
        "meta_mean_motion_ddot": 0,
        "tle_line1": "1 46805U 20075A   25342.89301153  .00000045  00000+0  00000+0 0  9990",
        "tle_line2": "2 46805  64.5958 198.8249 0006384 229.7163 130.3027  2.13099854 39856"
      },
      "geometry": {
        "type": "Point",
        "coordinates": [
          6.167259851196337,
          24.482817172538745
        ]
      }
    },
    {
      "type": "Feature",
      "properties": {
        "norad_id": 52984,
        "name": "COSMOS 2557 (706K)",
        "group": "glo-ops",
        "lat": 23.261244892523983,
        "lon": -27.109200700192982,
        "alt_km": 19138.775394684133,
        "timestamp": "2025-12-13T18:50:04.691719+00:00",
        "meta_object_name": "COSMOS 2557 (706K)",
        "meta_object_id": "2022-075A",
        "meta_epoch": "2025-12-07T04:21:00.419904",
        "meta_mean_motion": 2.13101754,
        "meta_eccentricity": 0.00137049,
        "meta_inclination": 64.4129,
        "meta_ra_of_asc_node": 321.247,
        "meta_arg_of_pericenter": 276.9,
        "meta_mean_anomaly": 82.939,
        "meta_ephemeris_type": 0,
        "meta_classification_type": "U",
        "meta_norad_cat_id": 52984,
        "meta_element_set_no": 999,
        "meta_rev_at_epoch": 2662,
        "meta_bstar": 0,
        "meta_mean_motion_dot": -5.2e-07,
        "meta_mean_motion_ddot": 0,
        "tle_line1": "1 52984U 22075A   25341.18125486 -.00000052  00000+0  00000+0 0  9990",
        "tle_line2": "2 52984  64.4129 321.2470 0013704 276.9000  82.9390  2.13101754 26625"
      },
      "geometry": {
        "type": "Point",
        "coordinates": [
          -27.109200700192982,
          23.261244892523983
        ]
      }
    },
    {
      "type": "Feature",
      "properties": {
        "norad_id": 54031,
        "name": "COSMOS 2559 (707K)",
        "group": "glo-ops",
        "lat": 13.795656458059282,
        "lon": 134.32924813907795,
        "alt_km": 19102.048151380553,
        "timestamp": "2025-12-13T18:50:04.691731+00:00",
        "meta_object_name": "COSMOS 2559 (707K)",
        "meta_object_id": "2022-130A",
        "meta_epoch": "2025-12-13T02:25:11.955648",
        "meta_mean_motion": 2.13101359,
        "meta_eccentricity": 0.00117976,
        "meta_inclination": 64.3821,
        "meta_ra_of_asc_node": 321.1284,
        "meta_arg_of_pericenter": 192.3956,
        "meta_mean_anomaly": 167.5755,
        "meta_ephemeris_type": 0,
        "meta_classification_type": "U",
        "meta_norad_cat_id": 54031,
        "meta_element_set_no": 999,
        "meta_rev_at_epoch": 2472,
        "meta_bstar": 0,
        "meta_mean_motion_dot": -6.2e-07,
        "meta_mean_motion_ddot": 0,
        "tle_line1": "1 54031U 22130A   25347.10083282 -.00000062  00000+0  00000+0 0  9993",
        "tle_line2": "2 54031  64.3821 321.1284 0011797 192.3956 167.5755  2.13101359 24726"
      },
      "geometry": {
        "type": "Point",
        "coordinates": [
          134.32924813907795,
          13.795656458059282
        ]
      }
    },
    {
      "type": "Feature",
      "properties": {
        "norad_id": 54377,
        "name": "COSMOS 2564 (761)",
        "group": "glo-ops",
        "lat": -61.19571166159173,
        "lon": 139.6973175126969,
        "alt_km": 19132.318442973305,
        "timestamp": "2025-12-13T18:50:04.691743+00:00",
        "meta_object_name": "COSMOS 2564 (761)",
        "meta_object_id": "2022-161A",
        "meta_epoch": "2025-12-12T22:40:51.156192",
        "meta_mean_motion": 2.13102087,
        "meta_eccentricity": 0.00086012,
        "meta_inclination": 64.7382,
        "meta_ra_of_asc_node": 198.8921,
        "meta_arg_of_pericenter": 204.7149,
        "meta_mean_anomaly": 155.3163,
        "meta_ephemeris_type": 0,
        "meta_classification_type": "U",
        "meta_norad_cat_id": 54377,
        "meta_element_set_no": 999,
        "meta_rev_at_epoch": 2366,
        "meta_bstar": 0,
        "meta_mean_motion_dot": 7.5e-07,
        "meta_mean_motion_ddot": 0,
        "tle_line1": "1 54377U 22161A   25346.94503653  .00000075  00000+0  00000+0 0  9993",
        "tle_line2": "2 54377  64.7382 198.8921 0008601 204.7149 155.3163  2.13102087 23663"
      },
      "geometry": {
        "type": "Point",
        "coordinates": [
          139.6973175126969,
          -61.19571166159173
        ]
      }
    },
    {
      "type": "Feature",
      "properties": {
        "norad_id": 57517,
        "name": "COSMOS 2569 (703K)",
        "group": "glo-ops",
        "lat": -64.93424782051702,
        "lon": -1.991477130016555,
        "alt_km": 19110.34633593561,
        "timestamp": "2025-12-13T18:50:04.691754+00:00",
        "meta_object_name": "COSMOS 2569 (703K)",
        "meta_object_id": "2023-114A",
        "meta_epoch": "2025-12-11T01:57:11.687328",
        "meta_mean_motion": 2.13103934,
        "meta_eccentricity": 0.0010485,
        "meta_inclination": 65.1933,
        "meta_ra_of_asc_node": 78.9695,
        "meta_arg_of_pericenter": 287.0346,
        "meta_mean_anomaly": 72.8683,
        "meta_ephemeris_type": 0,
        "meta_classification_type": "U",
        "meta_norad_cat_id": 57517,
        "meta_element_set_no": 999,
        "meta_rev_at_epoch": 1825,
        "meta_bstar": 0,
        "meta_mean_motion_dot": -2.7e-07,
        "meta_mean_motion_ddot": 0,
        "tle_line1": "1 57517U 23114A   25345.08138527 -.00000027  00000+0  00000+0 0  9997",
        "tle_line2": "2 57517  65.1933  78.9695 0010485 287.0346  72.8683  2.13103934 18252"
      },
      "geometry": {
        "type": "Point",
        "coordinates": [
          -1.991477130016555,
          -64.93424782051702
        ]
      }
    },
    {
      "type": "Feature",
      "properties": {
        "norad_id": 63130,
        "name": "COSMOS 2584 (704K)",
        "group": "glo-ops",
        "lat": 0.8743958239107779,
        "lon": 79.52240205004074,
        "alt_km": 19146.029575741835,
        "timestamp": "2025-12-13T18:50:04.691766+00:00",
        "meta_object_name": "COSMOS 2584 (704K)",
        "meta_object_id": "2025-042A",
        "meta_epoch": "2025-12-11T21:45:20.522592",
        "meta_mean_motion": 2.13103011,
        "meta_eccentricity": 0.00076483,
        "meta_inclination": 64.9756,
        "meta_ra_of_asc_node": 79.1743,
        "meta_arg_of_pericenter": 217.1196,
        "meta_mean_anomaly": 142.8438,
        "meta_ephemeris_type": 0,
        "meta_classification_type": "U",
        "meta_norad_cat_id": 63130,
        "meta_element_set_no": 999,
        "meta_rev_at_epoch": 605,
        "meta_bstar": 0,
        "meta_mean_motion_dot": -3.5e-07,
        "meta_mean_motion_ddot": 0,
        "tle_line1": "1 63130U 25042A   25345.90648753 -.00000035  00000+0  00000+0 0  9994",
        "tle_line2": "2 63130  64.9756  79.1743 0007648 217.1196 142.8438  2.13103011  6058"
      },
      "geometry": {
        "type": "Point",
        "coordinates": [
          79.52240205004074,
          0.8743958239107779
        ]
      }
    },
    {
      "type": "Feature",
      "properties": {
        "norad_id": 65590,
        "name": "COSMOS 2596 (708K)",
        "group": "glo-ops",
        "lat": 51.936914714381174,
        "lon": 104.36016330876879,
        "alt_km": 19159.70519205363,
        "timestamp": "2025-12-13T18:50:04.691777+00:00",
        "meta_object_name": "COSMOS 2596 (708K)",
        "meta_object_id": "2025-206B",
        "meta_epoch": "2025-12-13T03:40:38.538048",
        "meta_mean_motion": 2.13100493,
        "meta_eccentricity": 0.00140265,
        "meta_inclination": 64.7439,
        "meta_ra_of_asc_node": 321.4594,
        "meta_arg_of_pericenter": 306.3445,
        "meta_mean_anomaly": 48.5588,
        "meta_ephemeris_type": 0,
        "meta_classification_type": "U",
        "meta_norad_cat_id": 65590,
        "meta_element_set_no": 999,
        "meta_rev_at_epoch": 194,
        "meta_bstar": 0,
        "meta_mean_motion_dot": -6.1e-07,
        "meta_mean_motion_ddot": 0,
        "tle_line1": "1 65590U 25206B   25347.15322382 -.00000061  00000+0  00000+0 0  9993",
        "tle_line2": "2 65590  64.7439 321.4594 0014026 306.3445  48.5588  2.13100493  1941"
      },
      "geometry": {
        "type": "Point",
        "coordinates": [
          104.36016330876879,
          51.936914714381174
        ]
      }
    }
  ]
}